ONEWEB-0545             
1 54647U 22166F   24251.60752168  .00000145  00000+0  31881-3 0  9995
2 54647  87.9350  12.9338 0001307  92.9139 267.2145 13.21828935 85956
ONEWEB-0580             
1 54648U 22166G   24251.58072786  .00000125  00000+0  27098-3 0  9997
2 54648  87.9355  12.9134 0001570  84.0565 276.0748 13.21828447 85992
ONEWEB-0582             
1 54649U 22166H   24251.39620944 -.00000027  00000+0 -96597-4 0  9996
2 54649  87.9352  12.9850 0001676  73.8209 286.3110 13.21822798 85948
ONEWEB-0583             
1 54650U 22166J   24251.40724979 -.00000026  00000+0 -94456-4 0  9994
2 54650  87.9351  12.9816 0001663  96.7908 263.3415 13.21822969 85951
ONEWEB-0584             
1 54651U 22166K   24251.57913302  .00000201  00000+0  45426-3 0  9998
2 54651  87.9355  12.9175 0001590  88.8812 271.2505 13.21829203 85966
ONEWEB-0585             
1 54652U 22166L   24251.60437975  .00000158  00000+0  35086-3 0  9992
2 54652  87.9359  12.9229 0001886 101.0179 259.1167 13.21823458 85979
ONEWEB-0586             
1 54653U 22166M   24251.61700196  .00000188  00000+0  42287-3 0  9996
2 54653  87.9354  12.9303 0001601  92.9534 267.1783 13.21824542 85974
ONEWEB-0587             
1 54654U 22166N   24251.39937364 -.00000036  00000+0 -11770-3 0  9998
2 54654  87.9350  12.9273 0001915 103.6414 256.4933 13.21823867 86105
